{"cursor":"1770","size":15,"audio":[],"currentlang":"en","article":"{{Infobox planet\n| minorplanet = yes bgcolour = #FFFFC0 name = 1144 Oda \n| discovery = yes discoverer = Karl Wilhelm Reinmuth discovered = 1930-Jan-28\n| epoch = Orbital Elements at Epoch 2454400.5 (2007-Oct-27.0) TDB aphelion =\n| 4.1070017 AU perihelion = 3.3927665 AU semimajor = 3.7498841 AU eccentricity =\n| 0.0952343 period = 2652.3156742 days 7.26 years inclination = 9.74146 Â°\n| asc_node = 156.79789 Â° mean_anomaly = 4.27622 Â° arg_peri = 219.68639 Â°\n| physical_characteristics = yes| dimensions = diameter 57.59 albedo = 0.0533\n|   abs_magnitude = 10.00 mag\n}}\n\n'1144 Oda' is an outer main belt asteroid orbiting the Sun. Approximately 58\nkilometers in diameter, it makes a revolution around the Sun once every 7 years.\nIt was discovered by Karl Wilhelm Reinmuth on January 28, 1930.\nReinmuth had discovered so many minor planets that he had trouble thinking of\nproper names for the numbered ones, and so he selected girl's names from the\ncalendar Der Lahrer hinkende Bote. These names do not have any connections with\nhis contemporaries. The asteroid's provisional designation was 1930\nBJ.\n","linknr":172,"url":"1144_Oda","recorded":1374783638,"links":["/w/index.php?title=1144_Oda&action=edit","/w/index.php?title=1144_Oda&action=edit","//bits.wikimedia.org/favicon/wikipedia.ico","/w/opensearch_desc.php","//en.wikipedia.org/w/api.php?action=rsd","//creativecommons.org/licenses/by-sa/3.0/","/w/index.php?title=Special:RecentChanges&feed=atom","//bits.wikimedia.org/en.wikipedia.org/load.php?debug=false&lang=en&modules=ext.gadget.DRN-wizard%2CReferenceTooltips%2Ccharinsert%2Cteahouse%7Cext.rtlcite%2Cwikihiero%7Cext.uls.nojs%7Cmediawiki.legacy.commonPrint%2Cshared%7Cmw.PopUpMediaTransform%7Cskins.vector&only=styles&skin=vector&*","//bits.wikimedia.org/en.wikipedia.org/load.php?debug=false&lang=en&modules=site&only=styles&skin=vector&*","//bits.wikimedia.org/en.wikipedia.org/load.php?debug=false&lang=en&modules=startup&only=scripts&skin=vector&*","//bits.wikimedia.org/geoiplookup","//meta.wikimedia.org","#mw-navigation","#p-search","#cite_note-a-1","/wiki/Karl_Wilhelm_Reinmuth","/wiki/Osculating_orbit","/wiki/Epoch_(astronomy)","/wiki/Apsis","/wiki/Astronomical_units","/wiki/Apsis","/wiki/Semi-major_axis","/wiki/Orbital_eccentricity","/wiki/Orbital_period","/wiki/Mean_anomaly","/wiki/Orbital_inclination","/wiki/Longitude_of_the_ascending_node","/wiki/Argument_of_periapsis","/wiki/Standard_asteroid_physical_characteristics","/wiki/Geometric_albedo","/wiki/Absolute_magnitude#Solar_System_bodies_.28H.29","/wiki/Main_belt_asteroid","/wiki/Sun","/wiki/Karl_Wilhelm_Reinmuth","#cite_note-a-1","#cite_note-2","/w/index.php?title=1144_Oda&action=edit&section=1","#cite_ref-a_1-0","#cite_ref-a_1-1","http://ssd.jpl.nasa.gov/sbdb.cgi?sstr=1144","#cite_ref-2","/wiki/International_Standard_Book_Number","/wiki/Special:BookSources/3-540-00238-3","/wiki/Template:Minor_planets_navigator","/wiki/Template_talk:Minor_planets_navigator","//en.wikipedia.org/w/index.php?title=Template:Minor_planets_navigator&action=edit","/wiki/Minor_planet","/wiki/List_of_minor_planets","/wiki/1143_Odysseus","/wiki/1145_Robelmonte","/wiki/Template:Small_Solar_System_bodies","/wiki/Template_talk:Small_Solar_System_bodies","//en.wikipedia.org/w/index.php?title=Template:Small_Solar_System_bodies&action=edit","/wiki/Small_Solar_System_body","/wiki/Minor_planet","/wiki/Minor-planet_designation","/wiki/List_of_minor-planet_groups","/wiki/Minor-planet_moon","/wiki/Meanings_of_minor-planet_names","/wiki/Pronunciation_of_asteroid_names","/wiki/Asteroid","/wiki/Aten_asteroid","/wiki/Asteroid_family","/wiki/Jupiter_Trojan","/wiki/Asteroid_belt","/wiki/Near-Earth_asteroid","/wiki/Asteroid_spectral_types","/wiki/Distant_minor_planet","/wiki/Centaur_(minor_planet)","/wiki/Damocloid_asteroid","/wiki/Neptune_trojan","/wiki/Trans-Neptunian_object","/wiki/Detached_object","/wiki/Kuiper_belt","/wiki/Oort_cloud","/wiki/Scattered_disc","/wiki/Comet","/wiki/Extinct_comet","/wiki/Great_Comet","/wiki/Lost_comet","/wiki/Main-belt_comet","/wiki/List_of_non-periodic_comets","/wiki/List_of_periodic_comets","/wiki/Sungrazing_comet","/wiki/Meteoroid","/wiki/Meteoroid#Bolide","/wiki/Meteoroid#Meteoric_dust","/wiki/Meteoroid#Fireball","/wiki/Meteoroid#Meteor","/wiki/Meteoroid#Meteorite","/wiki/Meteoroid#Tektite","/wiki/Category:Asteroid_groups_and_families","/wiki/List_of_asteroid_moons","/wiki/Category:Binary_asteroids","/wiki/List_of_minor_planets","//en.wikipedia.org/w/index.php?title=Special:CentralAutoLogin/start&type=1x1&from=enwiki","http://en.wikipedia.org/w/index.php?title=1144_Oda&oldid=539632970","/wiki/Help:Categories","/wiki/Category:Main_Belt_asteroids","/wiki/Category:Discoveries_by_Karl_Wilhelm_Reinmuth","/wiki/Category:Astronomical_objects_discovered_in_1930","/w/index.php?title=Special:UserLogin&returnto=1144+Oda&type=signup","/w/index.php?title=Special:UserLogin&returnto=1144+Oda","/wiki/1144_Oda","/wiki/Talk:1144_Oda","#","/wiki/1144_Oda","/w/index.php?title=1144_Oda&action=edit","/w/index.php?title=1144_Oda&action=history","#","/w/index.php","//bits.wikimedia.org/static-1.22wmf10/skins/vector/images/search-ltr.png?303-4","/wiki/Main_Page","/wiki/Main_Page","/wiki/Portal:Contents","/wiki/Portal:Featured_content","/wiki/Portal:Current_events","/wiki/Special:Random","//donate.wikimedia.org/wiki/Special:FundraiserRedirector?utm_source=donate&utm_medium=sidebar&utm_campaign=C13_en.wikipedia.org&uselang=en","/wiki/Help:Contents","/wiki/Wikipedia:About","/wiki/Wikipedia:Community_portal","/wiki/Special:RecentChanges","//en.wikipedia.org/wiki/Wikipedia:Contact_us","/wiki/Special:WhatLinksHere/1144_Oda","/wiki/Special:RecentChangesLinked/1144_Oda","/wiki/Wikipedia:File_Upload_Wizard","/wiki/Special:SpecialPages","/w/index.php?title=1144_Oda&oldid=539632970","/w/index.php?title=1144_Oda&action=info","//www.wikidata.org/wiki/Q136427","/w/index.php?title=Special:Cite&page=1144_Oda&id=539632970","/w/index.php?title=Special:Book&bookcmd=book_creator&referer=1144+Oda","/w/index.php?title=Special:Book&bookcmd=render_article&arttitle=1144+Oda&oldid=539632970&writer=rl","/w/index.php?title=1144_Oda&printable=yes","//de.wikipedia.org/wiki/(1144)_Oda","//el.wikipedia.org/wiki/1144_%CE%8C%CE%BD%CF%84%CE%B1","//eo.wikipedia.org/wiki/1144_Odao","//eu.wikipedia.org/wiki/1144_Oda","//fa.wikipedia.org/wiki/%D8%B3%DB%8C%D8%A7%D8%B1%DA%A9_%DB%B1%DB%B1%DB%B4%DB%B4","//fr.wikipedia.org/wiki/(1144)_Oda","//hy.wikipedia.org/wiki/(1144)_%D5%95%D5%A4%D5%A1","//it.wikipedia.org/wiki/1144_Oda","//la.wikipedia.org/wiki/1144_Oda","//hu.wikipedia.org/wiki/1144_Oda","//ja.wikipedia.org/wiki/%E3%82%AA%E3%83%BC%E3%83%80_(%E5%B0%8F%E6%83%91%E6%98%9F)","//no.wikipedia.org/wiki/1144_Oda","//nn.wikipedia.org/wiki/1144_Oda","//pl.wikipedia.org/wiki/(1144)_Oda","//pt.wikipedia.org/wiki/1144_Oda","//sk.wikipedia.org/wiki/1144_Oda","//sr.wikipedia.org/wiki/1144_%D0%9E%D0%B4%D0%B0","//tl.wikipedia.org/wiki/1144_Oda","//uk.wikipedia.org/wiki/1144_%D0%9E%D0%B4%D0%B0","//vi.wikipedia.org/wiki/1144_Oda","//yo.wikipedia.org/wiki/1144_Oda","#","//www.wikidata.org/wiki/Q136427#sitelinks-wikipedia","//en.wikipedia.org/wiki/Wikipedia:Text_of_Creative_Commons_Attribution-ShareAlike_3.0_Unported_License","//creativecommons.org/licenses/by-sa/3.0/","//wikimediafoundation.org/wiki/Terms_of_Use","//wikimediafoundation.org/wiki/Privacy_policy","//www.wikimediafoundation.org/","//wikimediafoundation.org/wiki/Privacy_policy","/wiki/Wikipedia:About","/wiki/Wikipedia:General_disclaimer","//en.wikipedia.org/wiki/Wikipedia:Contact_us","//en.m.wikipedia.org/wiki/1144_Oda","//wikimediafoundation.org/","//bits.wikimedia.org/images/wikimedia-button.png","//www.mediawiki.org/","//bits.wikimedia.org/static-1.22wmf10/skins/common/images/poweredby_mediawiki_88x31.png","//bits.wikimedia.org/en.wikipedia.org/load.php?debug=false&lang=en&modules=site&only=scripts&skin=vector&*"],"instances":[],"pdf":[],"categories":["Main Belt asteroids","Discoveries by Karl Wilhelm Reinmuth","Astronomical objects discovered in 1930"],"headings":["References"],"image":["//en.wikipedia.org/w/index.php?title=Special:CentralAutoLogin/start&type=1x1&from=enwiki","//bits.wikimedia.org/static-1.22wmf10/skins/vector/images/search-ltr.png?303-4","//bits.wikimedia.org/images/wikimedia-button.png","//bits.wikimedia.org/static-1.22wmf10/skins/common/images/poweredby_mediawiki_88x31.png"],"tags":[],"members":[],"related":["Karl_Wilhelm_Reinmuth","Astronomical_units","Main_belt_asteroid","Sun","Karl_Wilhelm_Reinmuth"]}